{
  "type": "FeatureCollection",
  "features": [
    {
      "type": "Feature",
      "properties": {
        "norad_id": 56564,
        "name": "BEIDOU-3 G4 (C62)",
        "group": "beidou",
        "lat": -0.008948731046153381,
        "lon": -57.86424426668925,
        "alt_km": 35793.61695629557,
        "timestamp": "2025-12-14T03:55:53.053109+00:00",
        "meta_object_name": "BEIDOU-3 G4 (C62)",
        "meta_object_id": "2023-066A",
        "meta_epoch": "2025-12-13T05:41:14.698752",
        "meta_mean_motion": 1.00271659,
        "meta_eccentricity": 0.00028791,
        "meta_inclination": 0.8135,
        "meta_ra_of_asc_node": 302.1043,
        "meta_arg_of_pericenter": 231.674,
        "meta_mean_anomaly": 153.7697,
        "meta_ephemeris_type": 0,
        "meta_classification_type": "U",
        "meta_norad_cat_id": 56564,
        "meta_element_set_no": 999,
        "meta_rev_at_epoch": 953,
        "meta_bstar": 0,
        "meta_mean_motion_dot": -9.7e-07,
        "meta_mean_motion_ddot": 0,
        "tle_line1": "1 56564U 23066A   25347.23697568 -.00000097  00000+0  00000+0 0  9995",
        "tle_line2": "2 56564   0.8135 302.1043 0002879 231.6740 153.7697  1.00271659  9533"
      },
      "geometry": {
        "type": "Point",
        "coordinates": [
          -57.86424426668925,
          -0.008948731046153381
        ]
      }
    },
    {
      "type": "Feature",
      "properties": {
        "norad_id": 58654,
        "name": "BEIDOU-3 M28 (C50)",
        "group": "beidou",
        "lat": 53.52435315192403,
        "lon": 136.37666204674434,
        "alt_km": 21528.3745784825,
        "timestamp": "2025-12-14T03:55:53.053121+00:00",
        "meta_object_name": "BEIDOU-3 M28 (C50)",
        "meta_object_id": "2023-207A",
        "meta_epoch": "2025-12-11T21:37:33.991968",
        "meta_mean_motion": 1.86229651,
        "meta_eccentricity": 0.00023562,
        "meta_inclination": 55.5838,
        "meta_ra_of_asc_node": 68.6297,
        "meta_arg_of_pericenter": 269.3243,
        "meta_mean_anomaly": 90.6691,
        "meta_ephemeris_type": 0,
        "meta_classification_type": "U",
        "meta_norad_cat_id": 58654,
        "meta_element_set_no": 999,
        "meta_rev_at_epoch": 1335,
        "meta_bstar": 0,
        "meta_mean_motion_dot": -6.9e-07,
        "meta_mean_motion_ddot": 0,
        "tle_line1": "1 58654U 23207A   25345.90108787 -.00000069  00000+0  00000+0 0  9995",
        "tle_line2": "2 58654  55.5838  68.6297 0002356 269.3243  90.6691  1.86229651 13350"
      },
      "geometry": {
        "type": "Point",
        "coordinates": [
          136.37666204674434,
          53.52435315192403
        ]
      }
    },
    {
      "type": "Feature",
      "properties": {
        "norad_id": 58655,
        "name": "BEIDOU-3 M26 (C48)",
        "group": "beidou",
        "lat": -26.46395158300527,
        "lon": -91.53072778983562,
        "alt_km": 21523.744126199013,
        "timestamp": "2025-12-14T03:55:53.053133+00:00",
        "meta_object_name": "BEIDOU-3 M26 (C48)",
        "meta_object_id": "2023-207B",
        "meta_epoch": "2025-12-11T03:52:58.066752",
        "meta_mean_motion": 1.86231203,
        "meta_eccentricity": 0.000378,
        "meta_inclination": 55.5852,
        "meta_ra_of_asc_node": 68.6411,
        "meta_arg_of_pericenter": 255.3563,
        "meta_mean_anomaly": 104.6232,
        "meta_ephemeris_type": 0,
        "meta_classification_type": "U",
        "meta_norad_cat_id": 58655,
        "meta_element_set_no": 999,
        "meta_rev_at_epoch": 1332,
        "meta_bstar": 0,
        "meta_mean_motion_dot": -6.3e-07,
        "meta_mean_motion_ddot": 0,
        "tle_line1": "1 58655U 23207B   25345.16178318 -.00000063  00000+0  00000+0 0  9995",
        "tle_line2": "2 58655  55.5852  68.6411 0003780 255.3563 104.6232  1.86231203 13327"
      },
      "geometry": {
        "type": "Point",
        "coordinates": [
          -91.53072778983562,
          -26.46395158300527
        ]
      }
    },
    {
      "type": "Feature",
      "properties": {
        "norad_id": 61186,
        "name": "BEIDOU-3 M25 (C47)",
        "group": "beidou",
        "lat": -24.34838912261108,
        "lon": -70.07985643323525,
        "alt_km": 21518.47929527836,
        "timestamp": "2025-12-14T03:55:53.053144+00:00",
        "meta_object_name": "BEIDOU-3 M25 (C47)",
        "meta_object_id": "2024-168B",
        "meta_epoch": "2025-12-12T20:48:06.582240",
        "meta_mean_motion": 1.86230172,
        "meta_eccentricity": 0.00054256,
        "meta_inclination": 54.6417,
        "meta_ra_of_asc_node": 308.715,
        "meta_arg_of_pericenter": 297.6851,
        "meta_mean_anomaly": 242.2861,
        "meta_ephemeris_type": 0,
        "meta_classification_type": "U",
        "meta_norad_cat_id": 61186,
        "meta_element_set_no": 999,
        "meta_rev_at_epoch": 831,
        "meta_bstar": 0,
        "meta_mean_motion_dot": -9.5e-07,
        "meta_mean_motion_ddot": 0,
        "tle_line1": "1 61186U 24168B   25346.86674285 -.00000095  00000+0  00000+0 0  9992",
        "tle_line2": "2 61186  54.6417 308.7150 0005425 297.6851 242.2861  1.86230172  8316"
      },
      "geometry": {
        "type": "Point",
        "coordinates": [
          -70.07985643323525,
          -24.34838912261108
        ]
      }
    },
    {
      "type": "Feature",
      "properties": {
        "norad_id": 61187,
        "name": "BEIDOU-3 M27 (C49)",
        "group": "beidou",
        "lat": 52.10874320276008,
        "lon": 62.85406718494144,
        "alt_km": 21526.068599608836,
        "timestamp": "2025-12-14T03:55:53.053156+00:00",
        "meta_object_name": "BEIDOU-3 M27 (C49)",
        "meta_object_id": "2024-168C",
        "meta_epoch": "2025-12-13T04:47:06.571968",
        "meta_mean_motion": 1.86230336,
        "meta_eccentricity": 0.00023989,
        "meta_inclination": 54.6369,
        "meta_ra_of_asc_node": 308.6872,
        "meta_arg_of_pericenter": 337.1666,
        "meta_mean_anomaly": 200.7639,
        "meta_ephemeris_type": 0,
        "meta_classification_type": "U",
        "meta_norad_cat_id": 61187,
        "meta_element_set_no": 999,
        "meta_rev_at_epoch": 579,
        "meta_bstar": 0,
        "meta_mean_motion_dot": -9.6e-07,
        "meta_mean_motion_ddot": 0,
        "tle_line1": "1 61187U 24168C   25347.19938162 -.00000096  00000+0  00000+0 0  9998",
        "tle_line2": "2 61187  54.6369 308.6872 0002398 337.1666 200.7639  1.86230336  5796"
      },
      "geometry": {
        "type": "Point",
        "coordinates": [
          62.85406718494144,
          52.10874320276008
        ]
      }
    }
  ]
}